XRISM                   
1 57800U 23137A   26085.54504043  .00005698  00000+0  32080-3 0  9995
2 57800  31.0012 174.6249 0007940 208.9758 151.0440 15.11687851140341
ACS3                    
1 59588U 24077B   26085.41428402  .00013257  00000+0  10478-1 0  9999
2 59588  97.1983  22.7675 0071527  37.9711 322.6465 13.90340975 96524
SZ-21 MODULE            
1 66515U 25246C   26085.42964706  .00035932  00000+0  29374-3 0  9990
2 66515  41.4744 100.2120 0001204 208.6321 151.4455 15.69816747 20702
